{
  "type": "FeatureCollection",
  "features": [
    {
      "type": "Feature",
      "properties": {
        "nombre": "Usaquén",
        "id": "usaquen"
      },
      "geometry": {
        "type": "Polygon",
        "coordinates": [
          [
            [
              -73.991503,
              4.755
            ],
            [
              -73.991231,
              4.762815
            ],
            [
              -74.004499,
              4.770226
            ],
            [
              -74.012341,
              4.782049
            ],
            [
              -74.026247,
              4.781868
            ],
            [
              -74.033711,
              4.78157
            ],
            [
              -74.047723,
              4.782148
            ],
            [
              -74.058147,
              4.771806
            ],
            [
              -74.06709,
              4.762477
            ],
            [
              -74.072708,
              4.755
            ],
            [
              -74.06803,
              4.747334
            ],
            [
              -74.057349,
              4.738671
            ],
            [
              -74.044789,
              4.732347
            ],
            [
              -74.033768,
              4.728027
            ],
            [
              -74.025775,
              4.724754
            ],
            [
              -74.014199,
              4.730797
            ],
            [
              -74.001644,
              4.73807
            ],
            [
              -73.995892,
              4.748125
            ],
            [
              -73.991503,
              4.755
            ]
          ]
        ]
      }
    },
    {
      "type": "Feature",
      "properties": {
        "nombre": "Suba",
        "id": "suba"
      },
      "geometry": {
        "type": "Polygon",
        "coordinates": [
          [
            [
              -74.04316,
              4.745
            ],
            [
              -74.044595,
              4.753136
            ],
            [
              -74.059787,
              4.761035
            ],
            [
              -74.071624,
              4.77002
            ],
            [
              -74.084981,
              4.776939
            ],
            [
              -74.094628,
              4.77445
            ],
            [
              -74.11007,
              4.772327
            ],
            [
              -74.124289,
              4.763198
            ],
            [
              -74.129303,
              4.752042
            ],
            [
              -74.137214,
              4.745
            ],
            [
              -74.135146,
              4.736911
            ],
            [
              -74.121763,
              4.728143
            ],
            [
              -74.107112,
              4.721701
            ],
            [
              -74.094163,
              4.718509
            ],
            [
              -74.085651,
              4.717323
            ],
            [
              -74.070612,
              4.718602
            ],
            [
              -74.056018,
              4.726965
            ],
            [
              -74.049553,
              4.737753
            ],
            [
              -74.04316,
              4.745
            ]
          ]
        ]
      }
    },
    {
      "type": "Feature",
      "properties": {
        "nombre": "Engativá",
        "id": "engativa"
      },
      "geometry": {
        "type": "Polygon",
        "coordinates": [
          [
            [
              -74.085425,
              4.7
            ],
            [
              -74.085042,
              4.705905
            ],
            [
              -74.093189,
              4.712733
            ],
            [
              -74.103227,
              4.717632
            ],
            [
              -74.11173,
              4.722892
            ],
            [
              -74.117923,
              4.720459
            ],
            [
              -74.127571,
              4.718828
            ],
            [
              -74.135184,
              4.711783
            ],
            [
              -74.143175,
              4.705553
            ],
            [
              -74.143211,
              4.7
            ],
            [
              -74.145213,
              4.694045
            ],
            [
              -74.137206,
              4.687037
            ],
            [
              -74.126095,
              4.683383
            ],
            [
              -74.118235,
              4.677359
            ],
            [
              -74.112032,
              4.679226
            ],
            [
              -74.102294,
              4.680971
            ],
            [
              -74.092329,
              4.686765
            ],
            [
              -74.090068,
              4.695086
            ],
            [
              -74.085425,
              4.7
            ]
          ]
        ]
      }
    },
    {
      "type": "Feature",
      "properties": {
        "nombre": "Barrios Unidos",
        "id": "barrios-unidos"
      },
      "geometry": {
        "type": "Polygon",
        "coordinates": [
          [
            [
              -74.056702,
              4.685
            ],
            [
              -74.058603,
              4.688917
            ],
            [
              -74.061234,
              4.694741
            ],
            [
              -74.067846,
              4.697988
            ],
            [
              -74.073335,
              4.699131
            ],
            [
              -74.077014,
              4.702087
            ],
            [
              -74.082221,
              4.698109
            ],
            [
              -74.088013,
              4.694208
            ],
            [
              -74.090993,
              4.688821
            ],
            [
              -74.091256,
              4.685
            ],
            [
              -74.090552,
              4.681285
            ],
            [
              -74.087267,
              4.676319
            ],
            [
              -74.08208,
              4.672146
            ],
            [
              -74.076677,
              4.67077
            ],
            [
              -74.073145,
              4.669262
            ],
            [
              -74.067736,
              4.671813
            ],
            [
              -74.061387,
              4.675367
            ],
            [
              -74.05726,
              4.680762
            ],
            [
              -74.056702,
              4.685
            ]
          ]
        ]
      }
    },
    {
      "type": "Feature",
      "properties": {
        "nombre": "Chapinero",
        "id": "chapinero"
      },
      "geometry": {
        "type": "Polygon",
        "coordinates": [
          [
            [
              -74.01237,
              4.665
            ],
            [
              -74.019506,
              4.67071
            ],
            [
              -74.023137,
              4.679504
            ],
            [
              -74.03312,
              4.685218
            ],
            [
              -74.042181,
              4.687426
            ],
            [
              -74.047917,
              4.688201
            ],
            [
              -74.057073,
              4.685548
            ],
            [
              -74.067199,
              4.679727
            ],
            [
              -74.072392,
              4.671135
            ],
            [
              -74.07363,
              4.665
            ],
            [
              -74.072934,
              4.658743
            ],
            [
              -74.067852,
              4.64984
            ],
            [
              -74.056152,
              4.646019
            ],
            [
              -74.048188,
              4.639642
            ],
            [
              -74.042158,
              4.642395
            ],
            [
              -74.033776,
              4.645898
            ],
            [
              -74.023343,
              4.650633
            ],
            [
              -74.016554,
              4.658629
            ],
            [
              -74.01237,
              4.665
            ]
          ]
        ]
      }
    },
    {
      "type": "Feature",
      "properties": {
        "nombre": "Fontibón",
        "id": "fontibon"
      },
      "geometry": {
        "type": "Polygon",
        "coordinates": [
          [
            [
              -74.121475,
              4.675
            ],
            [
              -74.126316,
              4.679547
            ],
            [
              -74.13186,
              4.685315
            ],
            [
              -74.139639,
              4.690114
            ],
            [
              -74.147248,
              4.693762
            ],
            [
              -74.153068,
              4.695918
            ],
            [
              -74.161298,
              4.691481
            ],
            [
              -74.169637,
              4.686166
            ],
            [
              -74.175076,
              4.679814
            ],
            [
              -74.179406,
              4.675
            ],
            [
              -74.173924,
              4.670407
            ],
            [
              -74.171176,
              4.662959
            ],
            [
              -74.162042,
              4.657432
            ],
            [
              -74.152972,
              4.654739
            ],
            [
              -74.147283,
              4.656477
            ],
            [
              -74.138737,
              4.65857
            ],
            [
              -74.131669,
              4.664576
            ],
            [
              -74.124947,
              4.67019
            ],
            [
              -74.121475,
              4.675
            ]
          ]
        ]
      }
    },
    {
      "type": "Feature",
      "properties": {
        "nombre": "Teusaquillo",
        "id": "teusaquillo"
      },
      "geometry": {
        "type": "Polygon",
        "coordinates": [
          [
            [
              -74.06877,
              4.645
            ],
            [
              -74.069948,
              4.64941
            ],
            [
              -74.073671,
              4.655636
            ],
            [
              -74.081082,
              4.659902
            ],
            [
              -74.087815,
              4.662062
            ],
            [
              -74.09245,
              4.664137
            ],
            [
              -74.098881,
              4.65984
            ],
            [
              -74.107004,
              4.656075
            ],
            [
              -74.109513,
              4.649291
            ],
            [
              -74.112356,
              4.645
            ],
            [
              -74.111721,
              4.640224
            ],
            [
              -74.106697,
              4.634125
            ],
            [
              -74.098828,
              4.630249
            ],
            [
              -74.092212,
              4.627723
            ],
            [
              -74.087835,
              4.628089
            ],
            [
              -74.081567,
              4.630909
            ],
            [
              -74.073912,
              4.634521
            ],
            [
              -74.068152,
              4.640195
            ],
            [
              -74.06877,
              4.645
            ]
          ]
        ]
      }
    },
    {
      "type": "Feature",
      "properties": {
        "nombre": "Santa Fe",
        "id": "santa-fe"
      },
      "geometry": {
        "type": "Polygon",
        "coordinates": [
          [
            [
              -74.040073,
              4.62
            ],
            [
              -74.042156,
              4.624796
            ],
            [
              -74.047174,
              4.630211
            ],
            [
              -74.051249,
              4.637873
            ],
            [
              -74.058107,
              4.638067
            ],
            [
              -74.062025,
              4.639327
            ],
            [
              -74.068278,
              4.636906
            ],
            [
              -74.074536,
              4.631572
            ],
            [
              -74.078884,
              4.625075
            ],
            [
              -74.079657,
              4.62
            ],
            [
              -74.078002,
              4.615161
            ],
            [
              -74.074492,
              4.608463
            ],
            [
              -74.068822,
              4.601983
            ],
            [
              -74.062155,
              4.599429
            ],
            [
              -74.057972,
              4.60064
            ],
            [
              -74.051546,
              4.602733
            ],
            [
              -74.045652,
              4.608577
            ],
            [
              -74.040055,
              4.614639
            ],
            [
              -74.040073,
              4.62
            ]
          ]
        ]
      }
    },
    {
      "type": "Feature",
      "properties": {
        "nombre": "Los Mártires",
        "id": "los-martires"
      },
      "geometry": {
        "type": "Polygon",
        "coordinates": [
          [
            [
              -74.071754,
              4.61
            ],
            [
              -74.071529,
              4.613103
            ],
            [
              -74.074953,
              4.616856
            ],
            [
              -74.078981,
              4.620537
            ],
            [
              -74.083527,
              4.62205
            ],
            [
              -74.08641,
              4.62154
            ],
            [
              -74.09038,
              4.619419
            ],
            [
              -74.09547,
              4.617144
            ],
            [
              -74.099014,
              4.613228
            ],
            [
              -74.099236,
              4.61
            ],
            [
              -74.098202,
              4.606959
            ],
            [
              -74.094115,
              4.603781
            ],
            [
              -74.090819,
              4.599813
            ],
            [
              -74.086399,
              4.598556
            ],
            [
              -74.083435,
              4.597198
            ],
            [
              -74.079793,
              4.600885
            ],
            [
              -74.075106,
              4.603249
            ],
            [
              -74.071771,
              4.606952
            ],
            [
              -74.071754,
              4.61
            ]
          ]
        ]
      }
    },
    {
      "type": "Feature",
      "properties": {
        "nombre": "La Candelaria",
        "id": "la-candelaria"
      },
      "geometry": {
        "type": "Polygon",
        "coordinates": [
          [
            [
              -74.063148,
              4.595
            ],
            [
              -74.065166,
              4.597403
            ],
            [
              -74.067778,
              4.600226
            ],
            [
              -74.070435,
              4.603476
            ],
            [
              -74.073838,
              4.605085
            ],
            [
              -74.076059,
              4.604189
            ],
            [
              -74.079462,
              4.603284
            ],
            [
              -74.082956,
              4.600758
            ],
            [
              -74.085701,
              4.597615
            ],
            [
              -74.086752,
              4.595
            ],
            [
              -74.084138,
              4.592767
            ],
            [
              -74.082284,
              4.589729
            ],
            [
              -74.079372,
              4.586883
            ],
            [
              -74.076063,
              4.585774
            ],
            [
              -74.073899,
              4.58545
            ],
            [
              -74.070089,
              4.585882
            ],
            [
              -74.06758,
              4.58963
            ],
            [
              -74.063978,
              4.592307
            ],
            [
              -74.063148,
              4.595
            ]
          ]
        ]
      }
    },
    {
      "type": "Feature",
      "properties": {
        "nombre": "Antonio Nariño",
        "id": "antonio-nariño"
      },
      "geometry": {
        "type": "Polygon",
        "coordinates": [
          [
            [
              -74.084167,
              4.585
            ],
            [
              -74.08526,
              4.587971
            ],
            [
              -74.087718,
              4.592333
            ],
            [
              -74.093682,
              4.594678
            ],
            [
              -74.098201,
              4.597879
            ],
            [
              -74.101795,
              4.59785
            ],
            [
              -74.106535,
              4.59501
            ],
            [
              -74.11079,
              4.591442
            ],
            [
              -74.1147,
              4.587963
            ],
            [
              -74.117502,
              4.585
            ],
            [
              -74.113514,
              4.582276
            ],
            [
              -74.110503,
              4.578729
            ],
            [
              -74.106651,
              4.574812
            ],
            [
              -74.101601,
              4.573538
            ],
            [
              -74.098326,
              4.573017
            ],
            [
              -74.093164,
              4.574529
            ],
            [
              -74.087793,
              4.577711
            ],
            [
              -74.084934,
              4.581963
            ],
            [
              -74.084167,
              4.585
            ]
          ]
        ]
      }
    },
    {
      "type": "Feature",
      "properties": {
        "nombre": "Puente Aranda",
        "id": "puente-aranda"
      },
      "geometry": {
        "type": "Polygon",
        "coordinates": [
          [
            [
              -74.094466,
              4.625
            ],
            [
              -74.095287,
              4.629239
            ],
            [
              -74.101826,
              4.63339
            ],
            [
              -74.106634,
              4.638669
            ],
            [
              -74.112935,
              4.640768
            ],
            [
              -74.117064,
              4.640761
            ],
            [
              -74.122559,
              4.63735
            ],
            [
              -74.129601,
              4.634299
            ],
            [
              -74.13379,
              4.62904
            ],
            [
              -74.134798,
              4.625
            ],
            [
              -74.132001,
              4.621344
            ],
            [
              -74.128393,
              4.616471
            ],
            [
              -74.122658,
              4.612487
            ],
            [
              -74.117068,
              4.60921
            ],
            [
              -74.113074,
              4.610289
            ],
            [
              -74.106607,
              4.611287
            ],
            [
              -74.099821,
              4.615333
            ],
            [
              -74.097874,
              4.621318
            ],
            [
              -74.094466,
              4.625
            ]
          ]
        ]
      }
    },
    {
      "type": "Feature",
      "properties": {
        "nombre": "San Cristóbal",
        "id": "san-cristobal"
      },
      "geometry": {
        "type": "Polygon",
        "coordinates": [
          [
            [
              -74.047367,
              4.555
            ],
            [
              -74.052431,
              4.561175
            ],
            [
              -74.056859,
              4.570352
            ],
            [
              -74.069018,
              4.57369
            ],
            [
              -74.07716,
              4.577588
            ],
            [
              -74.082801,
              4.577277
            ],
            [
              -74.091898,
              4.57525
            ],
            [
              -74.099767,
              4.568113
            ],
            [
              -74.105005,
              4.560601
            ],
            [
              -74.107456,
              4.555
            ],
            [
              -74.10774,
              4.548787
            ],
            [
              -74.099289,
              4.542203
            ],
            [
              -74.09186,
              4.534815
            ],
            [
              -74.083073,
              4.530557
            ],
            [
              -74.077001,
              4.531144
            ],
            [
              -74.068579,
              4.535563
            ],
            [
              -74.060377,
              4.541982
            ],
            [
              -74.050882,
              4.548478
            ],
            [
              -74.047367,
              4.555
            ]
          ]
        ]
      }
    },
    {
      "type": "Feature",
      "properties": {
        "nombre": "Rafael Uribe Uribe",
        "id": "rafael-uribe-uribe"
      },
      "geometry": {
        "type": "Polygon",
        "coordinates": [
          [
            [
              -74.090669,
              4.575
            ],
            [
              -74.092603,
              4.580297
            ],
            [
              -74.097636,
              4.587164
            ],
            [
              -74.104157,
              4.594487
            ],
            [
              -74.112304,
              4.597649
            ],
            [
              -74.117752,
              4.598117
            ],
            [
              -74.124147,
              4.59144
            ],
            [
              -74.132861,
              4.587513
            ],
            [
              -74.137856,
              4.580406
            ],
            [
              -74.139503,
              4.575
            ],
            [
              -74.13682,
              4.569839
            ],
            [
              -74.133164,
              4.562275
            ],
            [
              -74.124612,
              4.557725
            ],
            [
              -74.117687,
              4.552429
            ],
            [
              -74.112272,
              4.552087
            ],
            [
              -74.103906,
              4.555062
            ],
            [
              -74.097701,
              4.562881
            ],
            [
              -74.093918,
              4.570014
            ],
            [
              -74.090669,
              4.575
            ]
          ]
        ]
      }
    },
    {
      "type": "Feature",
      "properties": {
        "nombre": "Tunjuelito",
        "id": "tunjuelito"
      },
      "geometry": {
        "type": "Polygon",
        "coordinates": [
          [
            [
              -74.110379,
              4.585
            ],
            [
              -74.110076,
              4.589284
            ],
            [
              -74.114984,
              4.594563
            ],
            [
              -74.121485,
              4.598912
            ],
            [
              -74.127798,
              4.601813
            ],
            [
              -74.13224,
              4.602108
            ],
            [
              -74.13886,
              4.599475
            ],
            [
              -74.143339,
              4.593495
            ],
            [
              -74.147124,
              4.588682
            ],
            [
              -74.148611,
              4.585
            ],
            [
              -74.149383,
              4.580832
            ],
            [
              -74.144338,
              4.575868
            ],
            [
              -74.137684,
              4.572445
            ],
            [
              -74.131911,
              4.570404
            ],
            [
              -74.127855,
              4.568621
            ],
            [
              -74.121494,
              4.571103
            ],
            [
              -74.114859,
              4.575357
            ],
            [
              -74.111317,
              4.580983
            ],
            [
              -74.110379,
              4.585
            ]
          ]
        ]
      }
    },
    {
      "type": "Feature",
      "properties": {
        "nombre": "Usme",
        "id": "usme"
      },
      "geometry": {
        "type": "Polygon",
        "coordinates": [
          [
            [
              -74.046379,
              4.53
            ],
            [
              -74.050323,
              4.538294
            ],
            [
              -74.056121,
              4.550977
            ],
            [
              -74.071219,
              4.559834
            ],
            [
              -74.085651,
              4.562287
            ],
            [
              -74.094466,
              4.563153
            ],
            [
              -74.107627,
              4.558
            ],
            [
              -74.121663,
              4.549605
            ],
            [
              -74.133559,
              4.539106
            ],
            [
              -74.135908,
              4.53
            ],
            [
              -74.131724,
              4.521278
            ],
            [
              -74.118833,
              4.512147
            ],
            [
              -74.107754,
              4.501799
            ],
            [
              -74.09501,
              4.492808
            ],
            [
              -74.085063,
              4.493348
            ],
            [
              -74.071309,
              4.50031
            ],
            [
              -74.055632,
              4.50872
            ],
            [
              -74.051795,
              4.522013
            ],
            [
              -74.046379,
              4.53
            ]
          ]
        ]
      }
    },
    {
      "type": "Feature",
      "properties": {
        "nombre": "Kennedy",
        "id": "kennedy"
      },
      "geometry": {
        "type": "Polygon",
        "coordinates": [
          [
            [
              -74.124678,
              4.625
            ],
            [
              -74.128673,
              4.630189
            ],
            [
              -74.132596,
              4.638079
            ],
            [
              -74.143599,
              4.642075
            ],
            [
              -74.151716,
              4.647984
            ],
            [
              -74.158383,
              4.648679
            ],
            [
              -74.168342,
              4.644982
            ],
            [
              -74.177237,
              4.637982
            ],
            [
              -74.181039,
              4.630132
            ],
            [
              -74.182814,
              4.625
            ],
            [
              -74.185215,
              4.619045
            ],
            [
              -74.175743,
              4.612891
            ],
            [
              -74.166423,
              4.607892
            ],
            [
              -74.158078,
              4.603457
            ],
            [
              -74.152177,
              4.605236
            ],
            [
              -74.144034,
              4.608576
            ],
            [
              -74.135098,
              4.613382
            ],
            [
              -74.128666,
              4.61981
            ],
            [
              -74.124678,
              4.625
            ]
          ]
        ]
      }
    },
    {
      "type": "Feature",
      "properties": {
        "nombre": "Bosa",
        "id": "bosa"
      },
      "geometry": {
        "type": "Polygon",
        "coordinates": [
          [
            [
              -74.164739,
              4.62
            ],
            [
              -74.164033,
              4.625484
            ],
            [
              -74.171431,
              4.631615
            ],
            [
              -74.177818,
              4.639548
            ],
            [
              -74.187087,
              4.64185
            ],
            [
              -74.192633,
              4.639744
            ],
            [
              -74.201444,
              4.638364
            ],
            [
              -74.209318,
              4.632083
            ],
            [
              -74.218046,
              4.625923
            ],
            [
              -74.216242,
              4.62
            ],
            [
              -74.215713,
              4.61457
            ],
            [
              -74.20829,
              4.60856
            ],
            [
              -74.201142,
              4.60212
            ],
            [
              -74.192784,
              4.599119
            ],
            [
              -74.187121,
              4.598408
            ],
            [
              -74.17931,
              4.602846
            ],
            [
              -74.169115,
              4.606937
            ],
            [
              -74.166257,
              4.614986
            ],
            [
              -74.164739,
              4.62
            ]
          ]
        ]
      }
    },
    {
      "type": "Feature",
      "properties": {
        "nombre": "Ciudad Bolívar",
        "id": "ciudad-bolivar"
      },
      "geometry": {
        "type": "Polygon",
        "coordinates": [
          [
            [
              -74.116931,
              4.555
            ],
            [
              -74.125257,
              4.56071
            ],
            [
              -74.129493,
              4.569504
            ],
            [
              -74.141141,
              4.575218
            ],
            [
              -74.151711,
              4.577426
            ],
            [
              -74.158403,
              4.578201
            ],
            [
              -74.169086,
              4.575548
            ],
            [
              -74.180898,
              4.569727
            ],
            [
              -74.186957,
              4.561135
            ],
            [
              -74.188402,
              4.555
            ],
            [
              -74.18759,
              4.548743
            ],
            [
              -74.181661,
              4.53984
            ],
            [
              -74.168011,
              4.536019
            ],
            [
              -74.158719,
              4.529642
            ],
            [
              -74.151685,
              4.532395
            ],
            [
              -74.141906,
              4.535898
            ],
            [
              -74.129734,
              4.540633
            ],
            [
              -74.121813,
              4.548629
            ],
            [
              -74.116931,
              4.555
            ]
          ]
        ]
      }
    },
    {
      "type": "Feature",
      "properties": {
        "nombre": "Sumapaz",
        "id": "sumapaz"
      },
      "geometry": {
        "type": "Polygon",
        "coordinates": [
          [
            [
              -74.044629,
              4.15
            ],
            [
              -74.060837,
              4.239437
            ],
            [
              -74.117224,
              4.34349
            ],
            [
              -74.178817,
              4.446269
            ],
            [
              -74.248085,
              4.482795
            ],
            [
              -74.292962,
              4.498684
            ],
            [
              -74.354984,
              4.426127
            ],
            [
              -74.423102,
              4.343902
            ],
            [
              -74.480055,
              4.239818
            ],
            [
              -74.503531,
              4.15
            ],
            [
              -74.490852,
              4.055565
            ],
            [
              -74.413117,
              3.968744
            ],
            [
              -74.361916,
              3.851347
            ],
            [
              -74.291958,
              3.816551
            ],
            [
              -74.249481,
              3.838403
            ],
            [
              -74.180756,
              3.860029
            ],
            [
              -74.108467,
              3.94542
            ],
            [
              -74.061212,
              4.060724
            ],
            [
              -74.044629,
              4.15
            ]
          ]
        ]
      }
    }
  ]
}